{
  "type": "FeatureCollection",
  "features": [
    {
      "type": "Feature",
      "properties": {
        "norad_id": 41877,
        "name": "RESOURCESAT-2A",
        "group": "resource",
        "lat": 78.64220530079099,
        "lon": -76.23941076941885,
        "alt_km": 813.4055062169846,
        "timestamp": "2025-12-09T14:52:25.823420+00:00",
        "meta_object_name": "RESOURCESAT-2A",
        "meta_object_id": "2016-074A",
        "meta_epoch": "2025-12-09T07:39:41.002848",
        "meta_mean_motion": 14.21598169,
        "meta_eccentricity": 0.00011303,
        "meta_inclination": 98.7758,
        "meta_ra_of_asc_node": 53.195,
        "meta_arg_of_pericenter": 272.738,
        "meta_mean_anomaly": 87.3668,
        "meta_ephemeris_type": 0,
        "meta_classification_type": "U",
        "meta_norad_cat_id": 41877,
        "meta_element_set_no": 999,
        "meta_rev_at_epoch": 46732,
        "meta_bstar": 0.00025547747,
        "meta_mean_motion_dot": 5.16e-06,
        "meta_mean_motion_ddot": 0,
        "tle_line1": "1 41877U 16074A   25343.31922457  .00000516  00000+0  25548-3 0  9993",
        "tle_line2": "2 41877  98.7758  53.1950 0001130 272.7380  87.3668 14.21598169467326"
      },
      "geometry": {
        "type": "Point",
        "coordinates": [
          -76.23941076941885,
          78.64220530079099
        ]
      }
    },
    {
      "type": "Feature",
      "properties": {
        "norad_id": 41948,
        "name": "CARTOSAT-2D",
        "group": "resource",
        "lat": 82.45416377691879,
        "lon": -39.35466628355239,
        "alt_km": 500.3569493237992,
        "timestamp": "2025-12-09T14:52:25.823433+00:00",
        "meta_object_name": "CARTOSAT-2D",
        "meta_object_id": "2017-008A",
        "meta_epoch": "2025-12-09T08:09:40.705344",
        "meta_mean_motion": 15.19203823,
        "meta_eccentricity": 0.00043654,
        "meta_inclination": 97.4388,
        "meta_ra_of_asc_node": 40.889,
        "meta_arg_of_pericenter": 171.9002,
        "meta_mean_anomaly": 188.2304,
        "meta_ephemeris_type": 0,
        "meta_classification_type": "U",
        "meta_norad_cat_id": 41948,
        "meta_element_set_no": 999,
        "meta_rev_at_epoch": 48875,
        "meta_bstar": 0.00032358884,
        "meta_mean_motion_dot": 6.746e-05,
        "meta_mean_motion_ddot": 0,
        "tle_line1": "1 41948U 17008A   25343.34005446  .00006746  00000+0  32359-3 0  9992",
        "tle_line2": "2 41948  97.4388  40.8890 0004365 171.9002 188.2304 15.19203823488756"
      },
      "geometry": {
        "type": "Point",
        "coordinates": [
          -39.35466628355239,
          82.45416377691879
        ]
      }
    },
    {
      "type": "Feature",
      "properties": {
        "norad_id": 42063,
        "name": "SENTINEL-2B",
        "group": "resource",
        "lat": -37.15659477078065,
        "lon": 62.67288915558129,
        "alt_km": 795.8773406088176,
        "timestamp": "2025-12-09T14:52:25.823444+00:00",
        "meta_object_name": "SENTINEL-2B",
        "meta_object_id": "2017-013A",
        "meta_epoch": "2025-12-09T06:39:28.185984",
        "meta_mean_motion": 14.30813224,
        "meta_eccentricity": 0.00011276,
        "meta_inclination": 98.5717,
        "meta_ra_of_asc_node": 55.7719,
        "meta_arg_of_pericenter": 94.3623,
        "meta_mean_anomaly": 265.7689,
        "meta_ephemeris_type": 0,
        "meta_classification_type": "U",
        "meta_norad_cat_id": 42063,
        "meta_element_set_no": 999,
        "meta_rev_at_epoch": 45748,
        "meta_bstar": 1.9215748e-05,
        "meta_mean_motion_dot": 7e-08,
        "meta_mean_motion_ddot": 0,
        "tle_line1": "1 42063U 17013A   25343.27740956  .00000007  00000+0  19216-4 0  9993",
        "tle_line2": "2 42063  98.5717  55.7719 0001127  94.3623 265.7689 14.30813224457485"
      },
      "geometry": {
        "type": "Point",
        "coordinates": [
          62.67288915558129,
          -37.15659477078065
        ]
      }
    },
    {
      "type": "Feature",
      "properties": {
        "norad_id": 42767,
        "name": "CARTOSAT-2E",
        "group": "resource",
        "lat": -0.5830196031731987,
        "lon": 41.32300469504922,
        "alt_km": 511.65853710295414,
        "timestamp": "2025-12-09T14:52:25.823454+00:00",
        "meta_object_name": "CARTOSAT-2E",
        "meta_object_id": "2017-036C",
        "meta_epoch": "2025-12-09T06:58:22.224864",
        "meta_mean_motion": 15.19266248,
        "meta_eccentricity": 0.00023488,
        "meta_inclination": 97.4558,
        "meta_ra_of_asc_node": 40.9217,
        "meta_arg_of_pericenter": 254.5527,
        "meta_mean_anomaly": 105.5448,
        "meta_ephemeris_type": 0,
        "meta_classification_type": "U",
        "meta_norad_cat_id": 42767,
        "meta_element_set_no": 999,
        "meta_rev_at_epoch": 46931,
        "meta_bstar": 0.00026429143,
        "meta_mean_motion_dot": 5.505e-05,
        "meta_mean_motion_ddot": 0,
        "tle_line1": "1 42767U 17036C   25343.29053501  .00005505  00000+0  26429-3 0  9995",
        "tle_line2": "2 42767  97.4558  40.9217 0002348 254.5527 105.5448 15.19266248469310"
      },
      "geometry": {
        "type": "Point",
        "coordinates": [
          41.32300469504922,
          -0.5830196031731987
        ]
      }
    },
    {
      "type": "Feature",
      "properties": {
        "norad_id": 42920,
        "name": "FORMOSAT-5",
        "group": "resource",
        "lat": 78.35303437632325,
        "lon": -77.29133213607685,
        "alt_km": 721.3332690903007,
        "timestamp": "2025-12-09T14:52:25.823465+00:00",
        "meta_object_name": "FORMOSAT-5",
        "meta_object_id": "2017-049A",
        "meta_epoch": "2025-12-09T06:08:51.391104",
        "meta_mean_motion": 14.5100247,
        "meta_eccentricity": 0.00100258,
        "meta_inclination": 98.2455,
        "meta_ra_of_asc_node": 57.6442,
        "meta_arg_of_pericenter": 307.3514,
        "meta_mean_anomaly": 52.6767,
        "meta_ephemeris_type": 0,
        "meta_classification_type": "U",
        "meta_norad_cat_id": 42920,
        "meta_element_set_no": 999,
        "meta_rev_at_epoch": 43913,
        "meta_bstar": 0.00013585884,
        "meta_mean_motion_dot": 4.94e-06,
        "meta_mean_motion_ddot": 0,
        "tle_line1": "1 42920U 17049A   25343.25615036  .00000494  00000+0  13586-3 0  9995",
        "tle_line2": "2 42920  98.2455  57.6442 0010025 307.3514  52.6767 14.51002470439138"
      },
      "geometry": {
        "type": "Point",
        "coordinates": [
          -77.29133213607685,
          78.35303437632325
        ]
      }
    },
    {
      "type": "Feature",
      "properties": {
        "norad_id": 42969,
        "name": "SENTINEL-5P",
        "group": "resource",
        "lat": 52.30122452912216,
        "lon": 113.76429893119578,
        "alt_km": 821.5448418111391,
        "timestamp": "2025-12-09T14:52:25.823475+00:00",
        "meta_object_name": "SENTINEL-5P",
        "meta_object_id": "2017-064A",
        "meta_epoch": "2025-12-09T07:30:43.994016",
        "meta_mean_motion": 14.19516238,
        "meta_eccentricity": 9.564e-05,
        "meta_inclination": 98.7781,
        "meta_ra_of_asc_node": 281.9276,
        "meta_arg_of_pericenter": 87.4014,
        "meta_mean_anomaly": 272.7271,
        "meta_ephemeris_type": 0,
        "meta_classification_type": "U",
        "meta_norad_cat_id": 42969,
        "meta_element_set_no": 999,
        "meta_rev_at_epoch": 42262,
        "meta_bstar": 0.00011029186,
        "meta_mean_motion_dot": 1.88e-06,
        "meta_mean_motion_ddot": 0,
        "tle_line1": "1 42969U 17064A   25343.31300919  .00000188  00000+0  11029-3 0  9993",
        "tle_line2": "2 42969  98.7781 281.9276 0000956  87.4014 272.7271 14.19516238422625"
      },
      "geometry": {
        "type": "Point",
        "coordinates": [
          113.76429893119578,
          52.30122452912216
        ]
      }
    },
    {
      "type": "Feature",
      "properties": {
        "norad_id": 42987,
        "name": "SKYSAT-C11",
        "group": "resource",
        "lat": -65.9586479028429,
        "lon": -75.93843447333423,
        "alt_km": 432.563316788287,
        "timestamp": "2025-12-09T14:52:25.823486+00:00",
        "meta_object_name": "SKYSAT-C11",
        "meta_object_id": "2017-068A",
        "meta_epoch": "2025-12-09T07:36:02.703744",
        "meta_mean_motion": 15.47225665,
        "meta_eccentricity": 9.276e-05,
        "meta_inclination": 97.4144,
        "meta_ra_of_asc_node": 120.7244,
        "meta_arg_of_pericenter": 105.4088,
        "meta_mean_anomaly": 254.7264,
        "meta_ephemeris_type": 0,
        "meta_classification_type": "U",
        "meta_norad_cat_id": 42987,
        "meta_element_set_no": 999,
        "meta_rev_at_epoch": 45378,
        "meta_bstar": 0.00057576653,
        "meta_mean_motion_dot": 0.0002927,
        "meta_mean_motion_ddot": 0,
        "tle_line1": "1 42987U 17068A   25343.31669796  .00029270  00000+0  57577-3 0  9999",
        "tle_line2": "2 42987  97.4144 120.7244 0000927 105.4088 254.7264 15.47225665453785"
      },
      "geometry": {
        "type": "Point",
        "coordinates": [
          -75.93843447333423,
          -65.9586479028429
        ]
      }
    }
  ]
}